{"type": "FeatureCollection", "features": [ {"type": "Feature", "properties": {"norad_id": 33825, "name": "COSMOS 2251 DEB", "group": "cosmos-2251-debris", "lat": -0.6554270915901367, "lon": -168.40407911199296, "alt_km": 718.8594225977149, "timestamp": "2025-12-21T03:56:51.225675+00:00", "meta": {"OBJECT_NAME": "COSMOS 2251 DEB", "OBJECT_ID": "1993-036BS", "EPOCH": "2025-12-20T19:47:48.418080", "MEAN_MOTION": 14.69828604, "ECCENTRICITY": 0.0084962, "INCLINATION": 73.9844, "RA_OF_ASC_NODE": 12.0678, "ARG_OF_PERICENTER": 337.2006, "MEAN_ANOMALY": 207.4684, "EPHEMERIS_TYPE": 0, "CLASSIFICATION_TYPE": "U", "NORAD_CAT_ID": 33825, "ELEMENT_SET_NO": 999, "REV_AT_EPOCH": 88998, "BSTAR": 0.00053562, "MEAN_MOTION_DOT": 3.348e-05, "MEAN_MOTION_DDOT": 0}, "tle": {"line1": "1 33825U 93036BS  25354.82486595  .00003348  00000+0  53562-3 0  9999", "line2": "2 33825  73.9844  12.0678 0084962 337.2006 207.4684 14.69828604889983"}}, "geometry": {"type": "Point", "coordinates": [-168.40407911199296, -0.6554270915901367]}}, {"type": "Feature", "properties": {"norad_id": 33826, "name": "COSMOS 2251 DEB", "group": "cosmos-2251-debris", "lat": -59.61042833202508, "lon": -116.8061428604148, "alt_km": 784.03734138043, "timestamp": "2025-12-21T03:56:51.225684+00:00", "meta": {"OBJECT_NAME": "COSMOS 2251 DEB", "OBJECT_ID": "1993-036BT", "EPOCH": "2025-12-20T14:09:39.581280", "MEAN_MOTION": 14.5175577, "ECCENTRICITY": 0.0082564, "INCLINATION": 74.0644, "RA_OF_ASC_NODE": 35.117, "ARG_OF_PERICENTER": 76.8214, "MEAN_ANOMALY": 45.7262, "EPHEMERIS_TYPE": 0, "CLASSIFICATION_TYPE": "U", "NORAD_CAT_ID": 33826, "ELEMENT_SET_NO": 999, "REV_AT_EPOCH": 87883, "BSTAR": 0.00036978, "MEAN_MOTION_DOT": 1.525e-05, "MEAN_MOTION_DDOT": 0}, "tle": {"line1": "1 33826U 93036BT  25354.59004145  .00001525  00000+0  36978-3 0  9998", "line2": "2 33826  74.0644  35.1170 0082564  76.8214  45.7262 14.51755770878831"}}, "geometry": {"type": "Point", "coordinates": [-116.8061428604148, -59.61042833202508]}}, {"type": "Feature", "properties": {"norad_id": 33828, "name": "COSMOS 2251 DEB", "group": "cosmos-2251-debris", "lat": -72.99589336120148, "lon": 153.120434571627, "alt_km": 731.1076181619728, "timestamp": "2025-12-21T03:56:51.225694+00:00", "meta": {"OBJECT_NAME": "COSMOS 2251 DEB", "OBJECT_ID": "1993-036BV", "EPOCH": "2025-12-20T16:57:34.395840", "MEAN_MOTION": 14.4435401, "ECCENTRICITY": 0.0029516, "INCLINATION": 74.0454, "RA_OF_ASC_NODE": 223.2753, "ARG_OF_PERICENTER": 294.981, "MEAN_ANOMALY": 121.4478, "EPHEMERIS_TYPE": 0, "CLASSIFICATION_TYPE": "U", "NORAD_CAT_ID": 33828, "ELEMENT_SET_NO": 999, "REV_AT_EPOCH": 88428, "BSTAR": 0.00027245, "MEAN_MOTION_DOT": 9.16e-06, "MEAN_MOTION_DDOT": 0}, "tle": {"line1": "1 33828U 93036BV  25354.70664810  .00000916  00000+0  27245-3 0  9994", "line2": "2 33828  74.0454 223.2753 0029516 294.9810 121.4478 14.44354010884283"}}, "geometry": {"type": "Point", "coordinates": [153.120434571627, -72.99589336120148]}}, {"type": "Feature", "properties": {"norad_id": 33830, "name": "COSMOS 2251 DEB", "group": "cosmos-2251-debris", "lat": 55.709454178510434, "lon": -121.32224609176345, "alt_km": 631.5901038296324, "timestamp": "2025-12-21T03:56:51.225703+00:00", "meta": {"OBJECT_NAME": "COSMOS 2251 DEB", "OBJECT_ID": "1993-036BX", "EPOCH": "2025-12-20T18:15:51.973344", "MEAN_MOTION": 14.76977053, "ECCENTRICITY": 0.0042598, "INCLINATION": 74.0311, "RA_OF_ASC_NODE": 214.6389, "ARG_OF_PERICENTER": 333.0717, "MEAN_ANOMALY": 101.375, "EPHEMERIS_TYPE": 0, "CLASSIFICATION_TYPE": "U", "NORAD_CAT_ID": 33830, "ELEMENT_SET_NO": 999, "REV_AT_EPOCH": 89590, "BSTAR": 0.00043049, "MEAN_MOTION_DOT": 3.044e-05, "MEAN_MOTION_DDOT": 0}, "tle": {"line1": "1 33830U 93036BX  25354.76101821  .00003044  00000+0  43049-3 0  9996", "line2": "2 33830  74.0311 214.6389 0042598 333.0717 101.3750 14.76977053895907"}}, "geometry": {"type": "Point", "coordinates": [-121.32224609176345, 55.709454178510434]}}, {"type": "Feature", "properties": {"norad_id": 33832, "name": "COSMOS 2251 DEB", "group": "cosmos-2251-debris", "lat": -22.30258794165077, "lon": -172.8361082796248, "alt_km": 702.6910362561484, "timestamp": "2025-12-21T03:56:51.225713+00:00", "meta": {"OBJECT_NAME": "COSMOS 2251 DEB", "OBJECT_ID": "1993-036BZ", "EPOCH": "2025-12-20T13:23:52.437984", "MEAN_MOTION": 14.60728869, "ECCENTRICITY": 0.0024418, "INCLINATION": 74.0526, "RA_OF_ASC_NODE": 195.056, "ARG_OF_PERICENTER": 224.6655, "MEAN_ANOMALY": 165.2826, "EPHEMERIS_TYPE": 0, "CLASSIFICATION_TYPE": "U", "NORAD_CAT_ID": 33832, "ELEMENT_SET_NO": 999, "REV_AT_EPOCH": 88539, "BSTAR": 0.00077782, "MEAN_MOTION_DOT": 3.78e-05, "MEAN_MOTION_DDOT": 0}, "tle": {"line1": "1 33832U 93036BZ  25354.55824581  .00003780  00000+0  77782-3 0  9998", "line2": "2 33832  74.0526 195.0560 0024418 224.6655 165.2826 14.60728869885394"}}, "geometry": {"type": "Point", "coordinates": [-172.8361082796248, -22.30258794165077]}}, {"type": "Feature", "properties": {"norad_id": 33835, "name": "COSMOS 2251 DEB", "group": "cosmos-2251-debris", "lat": -39.07201019352721, "lon": -81.5856772242534, "alt_km": 688.1004875437866, "timestamp": "2025-12-21T03:56:51.225722+00:00", "meta": {"OBJECT_NAME": "COSMOS 2251 DEB", "OBJECT_ID": "1993-036CC", "EPOCH": "2025-12-20T15:59:49.310880", "MEAN_MOTION": 14.62320106, "ECCENTRICITY": 0.0054023, "INCLINATION": 74.0578, "RA_OF_ASC_NODE": 85.9476, "ARG_OF_PERICENTER": 137.2138, "MEAN_ANOMALY": 342.7905, "EPHEMERIS_TYPE": 0, "CLASSIFICATION_TYPE": "U", "NORAD_CAT_ID": 33835, "ELEMENT_SET_NO": 999, "REV_AT_EPOCH": 88905, "BSTAR": 0.00056647, "MEAN_MOTION_DOT": 2.891e-05, "MEAN_MOTION_DDOT": 0}, "tle": {"line1": "1 33835U 93036CC  25354.66654295  .00002891  00000+0  56647-3 0  9995", "line2": "2 33835  74.0578  85.9476 0054023 137.2138 342.7905 14.62320106889058"}}, "geometry": {"type": "Point", "coordinates": [-81.5856772242534, -39.07201019352721]}}, {"type": "Feature", "properties": {"norad_id": 33836, "name": "COSMOS 2251 DEB", "group": "cosmos-2251-debris", "lat": 48.413690359179895, "lon": -98.80522418644964, "alt_km": 613.4439921659632, "timestamp": "2025-12-21T03:56:51.225732+00:00", "meta": {"OBJECT_NAME": "COSMOS 2251 DEB", "OBJECT_ID": "1993-036CD", "EPOCH": "2025-12-20T18:14:12.610752", "MEAN_MOTION": 14.79744491, "ECCENTRICITY": 0.0022691, "INCLINATION": 73.9968, "RA_OF_ASC_NODE": 243.1237, "ARG_OF_PERICENTER": 93.2432, "MEAN_ANOMALY": 323.5751, "EPHEMERIS_TYPE": 0, "CLASSIFICATION_TYPE": "U", "NORAD_CAT_ID": 33836, "ELEMENT_SET_NO": 999, "REV_AT_EPOCH": 64207, "BSTAR": 0.00065568, "MEAN_MOTION_DOT": 4.921e-05, "MEAN_MOTION_DDOT": 0}, "tle": {"line1": "1 33836U 93036CD  25354.75986818  .00004921  00000+0  65568-3 0  9993", "line2": "2 33836  73.9968 243.1237 0022691  93.2432 323.5751 14.79744491642077"}}, "geometry": {"type": "Point", "coordinates": [-98.80522418644964, 48.413690359179895]}}, {"type": "Feature", "properties": {"norad_id": 33837, "name": "COSMOS 2251 DEB", "group": "cosmos-2251-debris", "lat": -49.18412392755724, "lon": -120.8752505558771, "alt_km": 707.3303110084425, "timestamp": "2025-12-21T03:56:51.225741+00:00", "meta": {"OBJECT_NAME": "COSMOS 2251 DEB", "OBJECT_ID": "1993-036CE", "EPOCH": "2025-12-20T13:38:21.094080", "MEAN_MOTION": 14.50716351, "ECCENTRICITY": 0.0035906, "INCLINATION": 74.0125, "RA_OF_ASC_NODE": 40.8592, "ARG_OF_PERICENTER": 261.3278, "MEAN_ANOMALY": 98.3814, "EPHEMERIS_TYPE": 0, "CLASSIFICATION_TYPE": "U", "NORAD_CAT_ID": 33837, "ELEMENT_SET_NO": 999, "REV_AT_EPOCH": 88909, "BSTAR": 0.00017042, "MEAN_MOTION_DOT": 6.47e-06, "MEAN_MOTION_DDOT": 0}, "tle": {"line1": "1 33837U 93036CE  25354.56829970  .00000647  00000+0  17042-3 0  9993", "line2": "2 33837  74.0125  40.8592 0035906 261.3278  98.3814 14.50716351889095"}}, "geometry": {"type": "Point", "coordinates": [-120.8752505558771, -49.18412392755724]}}, {"type": "Feature", "properties": {"norad_id": 33838, "name": "COSMOS 2251 DEB", "group": "cosmos-2251-debris", "lat": 32.42236472512402, "lon": 144.5119383457932, "alt_km": 743.4549716549536, "timestamp": "2025-12-21T03:56:51.225750+00:00", "meta": {"OBJECT_NAME": "COSMOS 2251 DEB", "OBJECT_ID": "1993-036CF", "EPOCH": "2025-12-20T09:42:46.395360", "MEAN_MOTION": 14.48384547, "ECCENTRICITY": 0.00275049, "INCLINATION": 74.036, "RA_OF_ASC_NODE": 135.4587, "ARG_OF_PERICENTER": 256.2914, "MEAN_ANOMALY": 137.4758, "EPHEMERIS_TYPE": 0, "CLASSIFICATION_TYPE": "U", "NORAD_CAT_ID": 33838, "ELEMENT_SET_NO": 999, "REV_AT_EPOCH": 88680, "BSTAR": 0.00029293956, "MEAN_MOTION_DOT": 1.074e-05, "MEAN_MOTION_DDOT": 0}, "tle": {"line1": "1 33838U 93036CF  25354.40470365  .00001074  00000+0  29294-3 0  9994", "line2": "2 33838  74.0360 135.4587 0027504 256.2914 137.4758 14.48384547886800"}}, "geometry": {"type": "Point", "coordinates": [144.5119383457932, 32.42236472512402]}}, {"type": "Feature", "properties": {"norad_id": 33839, "name": "COSMOS 2251 DEB", "group": "cosmos-2251-debris", "lat": 73.80023932755944, "lon": -89.57507658266813, "alt_km": 721.7213798739158, "timestamp": "2025-12-21T03:56:51.225759+00:00", "meta": {"OBJECT_NAME": "COSMOS 2251 DEB", "OBJECT_ID": "1993-036CG", "EPOCH": "2025-12-20T19:25:08.724000", "MEAN_MOTION": 14.64438026, "ECCENTRICITY": 0.0085312, "INCLINATION": 74.0376, "RA_OF_ASC_NODE": 190.9743, "ARG_OF_PERICENTER": 301.1962, "MEAN_ANOMALY": 72.8913, "EPHEMERIS_TYPE": 0, "CLASSIFICATION_TYPE": "U", "NORAD_CAT_ID": 33839, "ELEMENT_SET_NO": 999, "REV_AT_EPOCH": 89698, "BSTAR": 0.00013471, "MEAN_MOTION_DOT": 7.17e-06, "MEAN_MOTION_DDOT": 0}, "tle": {"line1": "1 33839U 93036CG  25354.80912875  .00000717  00000+0  13471-3 0  9999", "line2": "2 33839  74.0376 190.9743 0085312 301.1962  72.8913 14.64438026896987"}}, "geometry": {"type": "Point", "coordinates": [-89.57507658266813, 73.80023932755944]}}]}